FORMOSAT 7-1            
1 44349U 19036L   26136.64029388  .00001695  00000+0  12010-3 0  9998
2 44349  23.9974 245.0527 0000858 142.1158 217.9403 14.96367035379928
FORMOSAT 7-4            
1 44350U 19036M   26136.79603747  .00001782  00000+0  12756-3 0  9997
2 44350  23.9988 306.1064 0001049 168.3076 191.7449 14.96361551379366
FORMOSAT 7-2            
1 44351U 19036N   26136.75171373  .00001817  00000+0  13067-3 0  9994
2 44351  23.9992   0.7176 0000606 162.8637 197.1885 14.96358551378878
FORMOSAT 7-6            
1 44353U 19036Q   26136.81830742  .00001500  00000+0  10321-3 0  9994
2 44353  23.9962 181.0868 0001450  94.4518 265.6148 14.96368245377114
FORMOSAT 7-5            
1 44358U 19036V   26136.26218607  .00001676  00000+0  11849-3 0  9998
2 44358  23.9975 123.5832 0000572 138.2665 221.7879 14.96366909377567
METEOR-M2 2             
1 44387U 19038A   26136.91478184  .00000133  00000+0  77526-4 0  9994
2 44387  98.9131 123.7407 0002355  96.2335 263.9111 14.24357459356849
GLOBAL-4                
1 44499U 19054E   26136.82137294  .00043503  00000+0  50143-3 0  9993
2 44499  45.0077  56.9508 0003866 140.4934 219.6244 15.61291525375455
ZY-1 02D                
1 44528U 19059A   26136.84164676  .00000130  00000+0  60013-4 0  9994
2 44528  98.3209 199.4333 0001116 154.5685 205.5556 14.35449407349848
TAURUS-1 (JINNIUZUO 1)  
1 44530U 19059C   26136.76843104  .00004398  00000+0  71314-3 0  9993
2 44530  98.6389 299.6610 0009288  57.5874 302.6228 14.71732137354020
ZHUHAI-1 03B            
1 44536U 19060C   26136.87166346  .00024704  00000+0  40696-3 0  9991
2 44536  97.5496 292.9987 0009569  77.3441 282.8880 15.52269228371464
ZHUHAI-1 03C            
1 44537U 19060D   26136.73337633  .00449352  85607-4  10380-2 0  9993
2 44537  97.5433 305.6661 0005361 302.9995  57.0766 15.97182425372237
ZHUHAI-1 03D            
1 44538U 19060E   26136.88873928  .00024976  00000+0  48003-3 0  9996
2 44538  97.5358 285.4136 0007983  64.2223 295.9849 15.47897318371233
ZHUHAI-1 03E            
1 44539U 19060F   26136.87000934  .00015042  00000+0  37883-3 0  9993
2 44539  97.5573 285.7657 0007145 130.5089 229.6780 15.39982562370943
GAOFEN-7                
1 44703U 19072A   26136.82727502  .00003101  00000+0  14094-3 0  9993
2 44703  97.2446 199.4690 0017683 141.6690 218.5806 15.21340305362872
JILIN-1 GAOFEN 2A       
1 44777U 19075A   26136.85777409  .00012464  00000+0  33091-3 0  9991
2 44777  97.4970 219.9379 0006618 181.9769 178.1451 15.38409305360069
NINGXIA-1 1             
1 44779U 19076A   26136.82806999 -.00000072  00000+0  37824-4 0  9990
2 44779  45.0068 319.9899 0010983   6.5190 353.5785 14.02035731333456
NINGXIA-1 5             
1 44783U 19076E   26136.84243456 -.00000112  00000+0  11508-4 0  9996
2 44783  45.0065 319.2800 0010980 356.2772   3.7979 14.02083249333378
KL-ALPHA A              
1 44785U 19077A   26136.83403069  .00000035  00000+0  32165-4 0  9991
2 44785  88.9266 225.9899 0010642 189.4393 170.6563 13.56039199321485
CARTOSAT-3              
1 44804U 19081A   26136.80628394  .00003674  00000+0  17752-3 0  9991
2 44804  97.4329 199.1730 0010988 259.3556 100.6442 15.19215877358703
JILIN-1 GAOFEN 2B       
1 44836U 19086A   26136.82213022  .00004914  00000+0  22851-3 0  9995
2 44836  97.4893 209.0170 0015612  72.6825 287.6117 15.20327810355724
TIANQIN 1 (CAS-6)       
1 44879U 19093A   26136.83976745  .00001577  00000+0  14842-3 0  9992
2 44879  97.7801 220.9107 0011977 152.2584 207.9278 14.95265054347368
ETRSS-1                 
1 44880U 19093B   26136.85534470  .00002554  00000+0  23455-3 0  9997
2 44880  97.7824 221.3583 0012252 151.0708 209.1194 14.95676296347376
TIANYAN 01              
1 44881U 19093C   26136.81106201  .00000324  00000+0  42713-4 0  9993
2 44881  97.7543 209.8074 0013319 184.1627 175.9480 14.86461321346753
TIANYAN 02              
1 44882U 19093D   26136.73799299  .00005910  00000+0  42214-3 0  9991
2 44882  97.7927 231.2394 0015042 128.2792 231.9789 15.04801571347887
CBERS 4A                
1 44883U 19093E   26136.82076263  .00001019  00000+0  13600-3 0  9994
2 44883  97.7513 205.0636 0000593 330.0552  30.0627 14.81652752346437
WEILAI 1R               
1 44884U 19093F   26136.71204736  .00004249  00000+0  34260-3 0  9994
2 44884  97.7838 226.5635 0015780 133.2269 227.0275 15.00349186347701
FLORIPASAT-1            
1 44885U 19093G   26136.68334139  .00004975  00000+0  36890-3 0  9999
2 44885  97.7894 230.6936 0012136 172.4100 187.7311 15.03500911347919
SHUNTIAN                
1 44886U 19093H   26136.81889455  .00000928  00000+0  90125-4 0  9997
2 44886  97.8010 225.1452 0012073 162.1350 198.0298 14.94988259347492
