OBJECT_NAME,OBJECT_ID,EPOCH,MEAN_MOTION,ECCENTRICITY,INCLINATION,RA_OF_ASC_NODE,ARG_OF_PERICENTER,MEAN_ANOMALY,EPHEMERIS_TYPE,CLASSIFICATION_TYPE,NORAD_CAT_ID,ELEMENT_SET_NO,REV_AT_EPOCH,BSTAR,MEAN_MOTION_DOT,MEAN_MOTION_DDOT
FORMOSAT 7-1,2019-036L,2026-05-16T15:22:01.391232,14.96367035,.0000858,23.9974,245.0527,142.1158,217.9403,0,U,44349,999,37992,.1201E-3,.1695E-4,0
FORMOSAT 7-4,2019-036M,2026-05-16T19:06:17.637408,14.96361551,.0001049,23.9988,306.1064,168.3076,191.7449,0,U,44350,999,37936,.12756E-3,.1782E-4,0
FORMOSAT 7-2,2019-036N,2026-05-16T18:02:28.066272,14.96358551,.0000606,23.9992,0.7176,162.8637,197.1885,0,U,44351,999,37887,.13067E-3,.1817E-4,0
FORMOSAT 7-6,2019-036Q,2026-05-16T19:38:21.761088,14.96368245,.000145,23.9962,181.0868,94.4518,265.6148,0,U,44353,999,37711,.10321E-3,.15E-4,0
FORMOSAT 7-5,2019-036V,2026-05-16T06:17:32.876448,14.96366909,.00005723,23.9975,123.5832,138.2665,221.7879,0,U,44358,999,37756,.11849189E-3,.1676E-4,0
METEOR-M2 2,2019-038A,2026-05-16T21:57:17.150976,14.24357459,.0002355,98.9131,123.7407,96.2335,263.9111,0,U,44387,999,35684,.77526E-4,.133E-5,0
GLOBAL-4,2019-054E,2026-05-16T19:42:46.622016,15.61291525,.0003866,45.0077,56.9508,140.4934,219.6244,0,U,44499,999,37545,.50143E-3,.43503E-3,0
ZY-1 02D,2019-059A,2026-05-16T20:11:58.280064,14.35449407,.0001116,98.3209,199.4333,154.5685,205.5556,0,U,44528,999,34984,.60013E-4,.13E-5,0
TAURUS-1 (JINNIUZUO 1),2019-059C,2026-05-16T18:26:32.441856,14.71732137,.0009288,98.6389,299.6610,57.5874,302.6228,0,U,44530,999,35402,.71314E-3,.4398E-4,0
ZHUHAI-1 03B,2019-060C,2026-05-16T20:55:11.722944,15.52269228,.0009569,97.5496,292.9987,77.3441,282.8880,0,U,44536,999,37146,.40696E-3,.24704E-3,0
ZHUHAI-1 03C,2019-060D,2026-05-16T17:36:03.714912,15.97182425,.0005361,97.5433,305.6661,302.9995,57.0766,0,U,44537,999,37223,.1038E-2,.449352E-2,.85607E-4
ZHUHAI-1 03D,2019-060E,2026-05-16T21:19:47.073792,15.47897318,.0007983,97.5358,285.4136,64.2223,295.9849,0,U,44538,999,37123,.48003E-3,.24976E-3,0
ZHUHAI-1 03E,2019-060F,2026-05-16T20:52:48.806976,15.39982562,.0007145,97.5573,285.7657,130.5089,229.6780,0,U,44539,999,37094,.37883E-3,.15042E-3,0
GAOFEN-7,2019-072A,2026-05-16T19:51:16.561728,15.21340305,.0017683,97.2446,199.4690,141.6690,218.5806,0,U,44703,999,36287,.14094E-3,.3101E-4,0
JILIN-1 GAOFEN 2A,2019-075A,2026-05-16T20:35:11.681376,15.38409305,.0006618,97.4970,219.9379,181.9769,178.1451,0,U,44777,999,36006,.33091E-3,.12464E-3,0
NINGXIA-1 1,2019-076A,2026-05-16T19:52:25.247136,14.02035731,.0010983,45.0068,319.9899,6.5190,353.5785,0,U,44779,999,33345,.37824E-4,-.72E-6,0
NINGXIA-1 5,2019-076E,2026-05-16T20:13:06.345984,14.02083249,.001098,45.0065,319.2800,356.2772,3.7979,0,U,44783,999,33337,.11508E-4,-.112E-5,0
KL-ALPHA A,2019-077A,2026-05-16T20:01:00.251616,13.56039199,.0010642,88.9266,225.9899,189.4393,170.6563,0,U,44785,999,32148,.32165E-4,.35E-6,0
CARTOSAT-3,2019-081A,2026-05-16T19:21:02.932416,15.19215877,.0010988,97.4329,199.1730,259.3556,100.6442,0,U,44804,999,35870,.17752E-3,.3674E-4,0
JILIN-1 GAOFEN 2B,2019-086A,2026-05-16T19:43:52.051008,15.20327810,.0015612,97.4893,209.0170,72.6825,287.6117,0,U,44836,999,35572,.22851E-3,.4914E-4,0
TIANQIN 1 (CAS-6),2019-093A,2026-05-16T20:09:15.907680,14.95265054,.0011977,97.7801,220.9107,152.2584,207.9278,0,U,44879,999,34736,.14842E-3,.1577E-4,0
ETRSS-1,2019-093B,2026-05-16T20:31:41.782080,14.95676296,.0012252,97.7824,221.3583,151.0708,209.1194,0,U,44880,999,34737,.23455E-3,.2554E-4,0
TIANYAN 01,2019-093C,2026-05-16T19:27:55.757664,14.86461321,.0013319,97.7543,209.8074,184.1627,175.9480,0,U,44881,999,34675,.42713E-4,.324E-5,0
TIANYAN 02,2019-093D,2026-05-16T17:42:42.594336,15.04801571,.0015042,97.7927,231.2394,128.2792,231.9789,0,U,44882,999,34788,.42214E-3,.591E-4,0
CBERS 4A,2019-093E,2026-05-16T19:41:53.891232,14.81652752,.0000593,97.7513,205.0636,330.0552,30.0627,0,U,44883,999,34643,.136E-3,.1019E-4,0
WEILAI 1R,2019-093F,2026-05-16T17:05:20.891904,15.00349186,.001578,97.7838,226.5635,133.2269,227.0275,0,U,44884,999,34770,.3426E-3,.4249E-4,0
FLORIPASAT-1,2019-093G,2026-05-16T16:24:00.696096,15.03500911,.0012136,97.7894,230.6936,172.4100,187.7311,0,U,44885,999,34791,.3689E-3,.4975E-4,0
SHUNTIAN,2019-093H,2026-05-16T19:39:12.489120,14.94988259,.0012073,97.8010,225.1452,162.1350,198.0298,0,U,44886,999,34749,.90125E-4,.928E-5,0
